#aV2024  7 22  0  0  0.00000000     288 DD+AD WGS84 FIT  NGA
## 2324  86400.00000000   300.00000000 60513 0.0000000000000
+   31     2  3  4  5  6  7  8  9 10 11 12 13 14 15 16 17 18
+         19 20 21 22 23 24 25 26 27 28 29 30 31 32  0  0  0
+          0  0  0  0  0  0  0  0  0  0  0  0  0  0  0  0  0
+          0  0  0  0  0  0  0  0  0  0  0  0  0  0  0  0  0
+          0  0  0  0  0  0  0  0  0  0  0  0  0  0  0  0  0
++         2  2  2  2  2  2  2  2  2  2  2  2  2  2  2  2  2
++         2  2  2  2  2  2  2  2  2  2  2  2  2  2  0  0  0
++         0  0  0  0  0  0  0  0  0  0  0  0  0  0  0  0  0
++         0  0  0  0  0  0  0  0  0  0  0  0  0  0  0  0  0
++         0  0  0  0  0  0  0  0  0  0  0  0  0  0  0  0  0
%c cc cc ccc ccc cccc cccc cccc cccc ccccc ccccc ccccc ccccc
%c cc cc ccc ccc cccc cccc cccc cccc ccccc ccccc ccccc ccccc
%f  0.0000000  0.000000000  0.00000000000  0.000000000000000
%f  0.0000000  0.000000000  0.00000000000  0.000000000000000
%i    0    0    0    0      0      0      0      0         0
%i    0    0    0    0      0      0      0      0         0
/*      NGA, ST. LOUIS,MO.                                  
/*   EPHEMERIS COMPUTED FROM 2 DAYS OF DATA                 
/*   EPOCHA v9 SMOOTHER                                     
/*   G2296 IERS2010 SATIGS SATAPC                           
*  2024  7 22 18 10  0.00000000
P  2 -11329.675623  20459.348502 -11815.434732   -393.972813                    
V  2 -13690.362311   8385.524219  26894.458768      0.074269                    
P  3   1243.071768  16081.153536 -21290.302791    469.209632                    
V  3 -24385.331288 -10529.628827  -9336.844903      0.160181                    
P  4  -1319.220809  26084.239736  -4388.496833    409.070832                    
V  4  -3091.241824  -5419.375007 -31303.047396      0.077022                    
P  5  15392.565459  -8441.805156  19770.560055   -180.633949                    
V  5  23302.898523  10295.076936 -13543.307710     -0.013023                    
P  6  20759.397448  -1262.988736 -16521.712103    145.749364                    
V  6 -16509.290597  13021.048444 -21555.490658     -0.231825                    
P  7   6847.686521  14283.048351  21808.252743    -64.923866                    
V  7 -21835.041274  15105.590870  -3572.438894      0.071604                    
P  8  -7596.003295  20605.456198  14516.291542    285.303721                    
V  8  -5125.328793 -18291.797249  23528.443054      0.158235                    
P  9   7808.786089  24437.948943   6676.264999    283.578951                    
V  9  -1685.870837   8887.133880 -30222.656751      0.151964                    
P 10 -24498.674598 -10697.050082   -509.938813    -72.962546                    
V 10    -80.182908  -1991.457530  32048.654443     -0.100552                    
P 11  23418.946421 -11655.113747  -4386.885578   -709.374834                    
V 11  -3247.387348   5284.575592 -31261.993019     -0.065195                    
P 12   2878.783419 -15561.701484 -21615.158924   -524.367453                    
V 12  23822.762295  12247.108448  -5672.207946     -0.030559                    
P 13  13232.398986 -13141.758644  18600.145986    666.219913                    
V 13    481.123308  24163.977207  16769.951092      0.023969                    
P 14  22973.965053  13273.780941   2846.185712    454.899656                    
V 14  -4539.486052   1263.569892  30984.371190      0.088732                    
P 15   4820.998771 -21759.759240  13800.809735    184.030665                    
V 15   7574.524316  17161.728981  23734.209156      0.042830                    
P 16 -19118.765719   3663.292766  17931.602312   -229.451306                    
V 16 -19636.388341 -12592.850109 -17594.070663      0.105492                    
P 17  12897.995414  14166.500596 -17906.769440    672.137964                    
V 17   -695.123843  23677.277384  17978.214063     -0.080685                    
P 18  -6766.884851 -13405.189326  21908.938905   -639.189894                    
V 18  22969.740248 -15589.901845  -2651.251278     -0.038044                    
P 19  14870.711941   5132.024438 -21618.301908    514.116523                    
V 19   -380.128508  26977.241354   5786.575314      0.053297                    
P 20  22827.764665  -3766.277064  12969.562312    372.487814                    
V 20  15339.847058   6427.152146 -25403.995676     -0.004030                    
P 21 -15169.915844  19768.796687  -7073.893842    107.293602                    
V 21  -9749.633897   3748.495196  30651.735454     -0.022865                    
P 22  24029.739219   9488.554868  -5033.535824    -42.657370                    
V 22   4574.481191   6087.626460  31067.225142     -0.044477                    
P 23 -18561.122251 -15706.620858  10959.178415    279.862174                    
V 23  13395.004503   3679.030322  27816.367386      0.088552                    
P 24  11853.515651 -21127.242141 -10826.270584   -484.130855                    
V 24  12223.807795  -6277.797541  27105.822044     -0.013704                    
P 25  -9352.116272 -17841.780640 -17777.576266    498.750298                    
V 25  20711.417820   7129.769117 -18145.061218      0.003354                    
P 26 -25479.428620  -3249.447070   7321.022387    115.140304                    
V 26  -7808.178322  -6241.869112 -28955.616050     -0.070683                    
P 27 -13124.565366  10246.763891  20303.233117    -31.698116                    
V 27  -4086.107869 -26254.480882  10872.461564     -0.008015                    
P 28 -19659.658534   -584.854501 -17859.805292   -342.051183                    
V 28  16960.867083 -15108.201179 -18183.608655     -0.156435                    
P 29  -3271.239364 -26003.212533   3812.164467   -588.220970                    
V 29   2449.411108  -4976.402325 -31571.900198      0.019102                    
P 30  16561.063767   6262.713150  20020.547493   -353.307530                    
V 30 -19693.827118  15625.732164  11223.223506      0.065924                    
P 31 -23755.342013   8477.519067  -9147.730648   -226.559291                    
V 31   7866.819551  -8327.629331 -28458.199385      0.002858                    
P 32 -14423.382777 -11949.822236 -18696.157514   -610.728293                    
V 32  -1331.822117 -24111.850059  16057.473432      0.021902                    
EOF
